     2.10           N: GPS NAV DATA                         RINEX VERSION / TYPE
teqc  2012Jun6      GPS Operator        20130111 00:10:36UTCPGM / RUN BY / DATE
Solaris x86 5.10|AMD64|cc SC5.8 -xarch=amd64|=+|=+          COMMENT
teqc  2012Jun6      GPS Operator        20130110 01:02:25UTCCOMMENT
                                                            END OF HEADER
16 13  1 10  6  0  0.0-2.516550011933D-04-3.410605131648D-13 0.000000000000D+00
    8.300000000000D+01-1.452500000000D+02 4.165887811663D-09 2.044474277634D+00
   -7.363036274910D-06 6.790365907364D-03 4.541128873825D-06 5.153565439224D+03
    3.672000000000D+05-1.862645149231D-08-1.006294131047D+00 1.080334186554D-07
    9.832159063862D-01 3.067812500000D+02 2.798494698823D-02-8.038549123551D-09
   -3.725155167665D-10 1.000000000000D+00 1.722000000000D+03 0.000000000000D+00
    2.000000000000D+00 0.000000000000D+00-9.778887033463D-09 8.300000000000D+01
    3.600180000000D+05 4.000000000000D+00
 7 13  1 10  6  0  0.0 1.671793870628D-04 4.433786671143D-12 0.000000000000D+00
    2.500000000000D+01 7.725000000000D+01 4.444113686602D-09-1.716687065490D+00
    3.863126039505D-06 6.041947752237D-03 8.810311555862D-07 5.153713935852D+03
    3.672000000000D+05 9.872019290924D-08-2.082972075782D+00-4.284083843231D-08
    9.756636942062D-01 3.701250000000D+02-2.922914820849D+00-8.361062557530D-09
    3.239420649158D-10 1.000000000000D+00 1.722000000000D+03 0.000000000000D+00
    2.000000000000D+00 0.000000000000D+00-1.117587089539D-08 2.500000000000D+01
    3.600180000000D+05 4.000000000000D+00
30 13  1 10  6  0  0.0-2.570319920778D-04 9.777068044059D-12 0.000000000000D+00
    1.000000000000D+02-1.336562500000D+02 4.785199322759D-09 9.990597378196D-01
   -7.089227437973D-06 1.085566834081D-02 2.909451723099D-06 5.153611240387D+03
    3.672000000000D+05-1.005828380585D-07-1.154316540340D+00-1.434236764908D-07
    9.623265407174D-01 3.290312500000D+02 1.612487991100D+00-8.558570784541D-09
   -3.264421690552D-10 1.000000000000D+00 1.722000000000D+03 0.000000000000D+00
    5.700000000000D+00 0.000000000000D+00-4.656612873077D-09 1.000000000000D+02
    3.600180000000D+05 4.000000000000D+00
10 13  1 10  6  0  0.0-6.560934707522D-05-1.477928890381D-12 0.000000000000D+00
    9.600000000000D+01-2.253125000000D+01 4.932348309248D-09 2.063517933690D+00
   -1.279637217522D-06 1.225006859750D-02 8.802860975266D-06 5.153753118515D+03
    3.672000000000D+05-1.825392246246D-07 2.106206265065D+00-1.322478055954D-07
    9.439962576447D-01 2.032187500000D+02 7.888103466714D-01-8.102837515707D-09
   -6.368122400716D-10 1.000000000000D+00 1.722000000000D+03 0.000000000000D+00
    2.000000000000D+00 0.000000000000D+00-2.793967723846D-09 9.600000000000D+01
    3.600180000000D+05 4.000000000000D+00
 8 13  1 10  6  0  0.0 3.909692168236D-06 2.273736754432D-13 0.000000000000D+00
    1.100000000000D+02 5.231250000000D+01 4.051240178986D-09-2.304516787620D+00
    2.605840563774D-06 1.269677921664D-02 3.837049007416D-07 5.153612268448D+03
    3.672000000000D+05 1.676380634308D-08-1.994690091375D+00-2.682209014893D-07
    9.981215318825D-01 3.961250000000D+02-2.886019991780D+00-8.084265313528D-09
    2.710827202548D-10 1.000000000000D+00 1.722000000000D+03 0.000000000000D+00
    4.000000000000D+00 0.000000000000D+00-4.190951585770D-09 1.100000000000D+02
    3.600180000000D+05 4.000000000000D+00
20 13  1 10  6  0  0.0 7.948046550155D-05 1.364242052659D-12 0.000000000000D+00
    8.100000000000D+01-3.706250000000D+01 5.363437694423D-09 3.133110912040D+00
   -1.838430762291D-06 5.458342959173D-03 7.856637239456D-06 5.153551990509D+03
    3.672000000000D+05-3.725290298462D-09 2.037903806371D+00-1.117587089539D-08
    9.283821965135D-01 2.098750000000D+02 1.282773438514D+00-8.284630802412D-09
   -5.943104697023D-10 1.000000000000D+00 1.722000000000D+03 0.000000000000D+00
    2.000000000000D+00 0.000000000000D+00-7.916241884232D-09 8.100000000000D+01
    3.600180000000D+05 4.000000000000D+00
13 13  1 10  6  0  0.0 1.536472700536D-04-2.842170943040D-12 0.000000000000D+00
    6.000000000000D+01 1.236250000000D+02 3.630508368103D-09 7.210360921046D-01
    6.457790732384D-06 4.879723652266D-03 1.037493348122D-05 5.153579568863D+03
    3.672000000000D+05-2.793967723846D-08-3.051022337613D+00-7.264316082001D-08
    9.835698008987D-01 1.908750000000D+02 2.066403644932D+00-7.682462862558D-09
    8.071764792832D-11 1.000000000000D+00 1.722000000000D+03 0.000000000000D+00
    2.000000000000D+00 0.000000000000D+00-1.117587089539D-08 6.000000000000D+01
    3.600180000000D+05 4.000000000000D+00
 6 13  1 10  5 59 44.0 3.938409499824D-04-1.364242052659D-11 0.000000000000D+00
    2.700000000000D+01-8.396875000000D+01 4.766269962847D-09 1.734678656695D+00
   -4.122033715248D-06 7.579765398987D-03 1.146271824837D-05 5.153691345215D+03
    3.671840000000D+05 1.434236764908D-07-6.773498691980D-02 8.568167686462D-08
    9.403774518212D-01 1.455312500000D+02-3.984972946004D-01-7.957117160155D-09
    2.121516941125D-10 1.000000000000D+00 1.722000000000D+03 0.000000000000D+00
    2.000000000000D+00 0.000000000000D+00-5.122274160385D-09 2.700000000000D+01
    3.600180000000D+05 4.000000000000D+00
 3 13  1 10  6  0  0.0 1.531322486699D-04 4.888534022029D-12 0.000000000000D+00
    1.160000000000D+02-8.809375000000D+01 5.004137013821D-09-1.617212985355D-01
   -4.444271326065D-06 1.591251802165D-02 1.149624586105D-05 5.153672824860D+03
    3.672000000000D+05-1.192092895508D-07-1.461038053985D-01 1.601874828339D-07
    9.336516201204D-01 1.455312500000D+02 1.263868850376D+00-8.403564327900D-09
    2.460816788611D-10 1.000000000000D+00 1.722000000000D+03 0.000000000000D+00
    2.800000000000D+00 0.000000000000D+00-4.656612873077D-09 1.160000000000D+02
    3.600180000000D+05 4.000000000000D+00
23 13  1 10  5 59 44.0 1.254063099623D-04-3.751665644813D-12 0.000000000000D+00
    2.100000000000D+01 1.162812500000D+02 4.264106188567D-09-7.774410710840D-02
    6.170943379402D-06 8.132058079354D-03 1.103430986404D-05 5.153774137497D+03
    3.671840000000D+05 1.154839992523D-07-3.135458755117D+00 4.842877388000D-08
    9.578410012824D-01 1.655625000000D+02-2.916233720794D+00-7.976046520067D-09
   -2.142946405177D-12 1.000000000000D+00 1.722000000000D+03 0.000000000000D+00
    2.000000000000D+00 0.000000000000D+00-2.048909664154D-08 2.100000000000D+01
    3.600180000000D+05 4.000000000000D+00
30 13  1 10  5 59 44.0-2.570073120296D-04 1.159605744760D-11 0.000000000000D+00
    8.600000000000D+01-1.336562500000D+02 4.785199322759D-09 9.967249117876D-01
   -7.089227437973D-06 1.085566345137D-02 2.909451723099D-06 5.153611253738D+03
    3.671840000000D+05-1.005828380585D-07-1.154316411603D+00-1.434236764908D-07
    9.623265451062D-01 3.290312500000D+02 1.612488941997D+00-8.558570784541D-09
   -3.264421690552D-10 1.000000000000D+00 1.722000000000D+03 0.000000000000D+00
    2.800000000000D+00 0.000000000000D+00-4.656612873077D-09 8.600000000000D+01
    3.616080000000D+05 4.000000000000D+00
19 13  1 10  5 59 44.0-3.385436721146D-04-3.296918293927D-12 0.000000000000D+00
    1.000000000000D+01-5.290625000000D+01 4.302679223860D-09 3.453842733613D-01
   -2.712011337280D-06 8.784237899818D-03 1.156330108643D-05 5.153660009384D+03
    3.671840000000D+05 1.396983861923D-07 8.407642847501D-02 6.705522537231D-08
    9.621634151111D-01 1.547500000000D+02 2.744765345808D-01-7.861756045124D-09
    3.625151002090D-10 1.000000000000D+00 1.722000000000D+03 0.000000000000D+00
    2.000000000000D+00 0.000000000000D+00-1.443549990654D-08 1.000000000000D+01
    3.629580000000D+05 4.000000000000D+00
 5 13  1 10  5 59 44.0-3.777393139899D-04-2.046363078989D-12 0.000000000000D+00
    9.000000000000D+00-1.318750000000D+01 4.901632744107D-09 1.699242083385D+00
   -6.221234798431D-07 3.187382244505D-03 8.659437298775D-06 5.153813745499D+03
    3.671840000000D+05 7.450580596924D-09 2.085972084813D+00 2.235174179077D-08
    9.491331291703D-01 2.085937500000D+02 3.148608138681D-01-8.060692903071D-09
   -6.753852753648D-10 1.000000000000D+00 1.722000000000D+03 0.000000000000D+00
    2.000000000000D+00 0.000000000000D+00-1.024454832077D-08 9.000000000000D+00
    3.630180000000D+05 4.000000000000D+00
 8 13  1 10  5 59 44.0 3.913883119822D-06 2.273736754432D-13 0.000000000000D+00
    4.000000000000D+00 5.231250000000D+01 4.051240178986D-09-2.306850283860D+00
    2.605840563774D-06 1.269676047377D-02 3.837049007416D-07 5.153612257004D+03
    3.671840000000D+05 1.676380634308D-08-1.994689950934D+00-2.682209014893D-07
    9.981215216420D-01 3.961250000000D+02-2.886020278512D+00-8.084265313528D-09
    2.710827202548D-10 1.000000000000D+00 1.722000000000D+03 0.000000000000D+00
    2.000000000000D+00 0.000000000000D+00-4.190951585770D-09 4.000000000000D+00
    3.638880000000D+05 4.000000000000D+00
28 13  1 10  6  0  0.0 2.220696769655D-04 3.524291969370D-12 0.000000000000D+00
    7.900000000000D+01-1.500312500000D+02 3.990880521907D-09 1.811764645235D+00
   -8.180737495422D-06 1.862568617798D-02 5.137175321579D-06 5.153644083023D+03
    3.672000000000D+05 1.490116119385D-08-9.998707986207D-01-4.451721906662D-07
    9.816345680142D-01 2.953125000000D+02-1.796363873171D+00-7.891400137062D-09
   -3.071556514086D-10 1.000000000000D+00 1.722000000000D+03 0.000000000000D+00
    2.000000000000D+00 0.000000000000D+00-1.071020960808D-08 7.900000000000D+01
    3.649680000000D+05 4.000000000000D+00
